ONEWEB-0393             
1 50473U 21132E   23299.77596353 -.00000333  00000+0 -89142-3 0  9995
2 50473  87.9257 197.5134 0001442  78.3484 281.7809 13.17647867 91100
ONEWEB-0394             
1 50474U 21132F   23299.85925716  .00000115  00000+0  25860-3 0  9997
2 50474  87.9253 167.2714 0001720  82.0108 278.1219 13.18688310 94500
ONEWEB-0395             
1 50475U 21132G   23299.77622405 -.00000110  00000+0 -34718-3 0  9997
2 50475  87.9000 212.6941 0001715  86.7098 273.4227 13.11414986 89310
ONEWEB-0396             
1 50476U 21132H   23299.70120709  .00000293  00000+0  71092-3 0  9997
2 50476  87.9254 167.2943 0001814  82.7382 277.3957 13.18685109 94527
ONEWEB-0397             
1 50477U 21132J   23299.86768648 -.00000143  00000+0 -39643-3 0  9997
2 50477  87.9253 167.2623 0001904  86.3217 273.8133 13.18685843 94521
ONEWEB-0398             
1 50478U 21132K   23299.82007884 -.00001418  00000+0 -40369-2 0  9994
2 50478  87.9000 212.6776 0001814  82.0717 278.0617 13.11429085 89215
ONEWEB-0399             
1 50479U 21132L   23299.80544475  .00000130  00000+0  33080-3 0  9996
2 50479  87.8990 212.6918 0002465  71.8178 288.3218 13.11423643 89205
ONEWEB-0400             
1 50480U 21132M   23299.61898630  .00000050  00000+0  92924-4 0  9996
2 50480  87.9255 167.3189 0001820  65.8109 294.3213 13.18685311 94486
